[{"OBJECT_NAME":"STARLINK-2440","OBJECT_ID":"2021-027P","EPOCH":"2026-03-10T00:00:02.999808","MEAN_MOTION":15.26632507,"ECCENTRICITY":0.0001349,"INCLINATION":53.1427,"RA_OF_ASC_NODE":99.4722,"ARG_OF_PERICENTER":82.5346,"MEAN_ANOMALY":301.8007,"EPHEMERIS_TYPE":0,"CLASSIFICATION_TYPE":"U","NORAD_CAT_ID":48105,"ELEMENT_SET_NO":999,"REV_AT_EPOCH":579,"BSTAR":0.063164242,"MEAN_MOTION_DOT":0.0184398,"MEAN_MOTION_DDOT":0},{"OBJECT_NAME":"KUIPER-00225","OBJECT_ID":"2026-030W","EPOCH":"2026-03-09T16:40:08.528160","MEAN_MOTION":15.35937709,"ECCENTRICITY":0.00044584,"INCLINATION":51.8808,"RA_OF_ASC_NODE":219.1029,"ARG_OF_PERICENTER":39.1442,"MEAN_ANOMALY":320.9866,"EPHEMERIS_TYPE":0,"CLASSIFICATION_TYPE":"U","NORAD_CAT_ID":67784,"ELEMENT_SET_NO":999,"REV_AT_EPOCH":509,"BSTAR":0.00071609689,"MEAN_MOTION_DOT":0.00025142,"MEAN_MOTION_DDOT":0}]
